[{"OBJECT_NAME":"STARLINK-31050","OBJECT_ID":"2023-192R","EPOCH":"2026-03-09T08:58:46.718976","MEAN_MOTION":15.30181401,"ECCENTRICITY":0.00013676,"INCLINATION":53.1604,"RA_OF_ASC_NODE":64.4434,"ARG_OF_PERICENTER":103.7803,"MEAN_ANOMALY":256.335,"EPHEMERIS_TYPE":0,"CLASSIFICATION_TYPE":"U","NORAD_CAT_ID":58546,"ELEMENT_SET_NO":999,"REV_AT_EPOCH":12593,"BSTAR":-5.119229e-5,"MEAN_MOTION_DOT":-1.874e-5,"MEAN_MOTION_DDOT":0},{"OBJECT_NAME":"OBJECT H","OBJECT_ID":"2025-055H","EPOCH":"2026-03-09T23:29:50.051328","MEAN_MOTION":15.30330066,"ECCENTRICITY":0.00075967,"INCLINATION":97.636,"RA_OF_ASC_NODE":211.9572,"ARG_OF_PERICENTER":140.4354,"MEAN_ANOMALY":219.7441,"EPHEMERIS_TYPE":0,"CLASSIFICATION_TYPE":"U","NORAD_CAT_ID":63298,"ELEMENT_SET_NO":999,"REV_AT_EPOCH":5423,"BSTAR":0.0015582864,"MEAN_MOTION_DOT":0.00045901,"MEAN_MOTION_DDOT":0}]
